STARLINK-5526           
1 56496U 23064BA  26068.48018160 -.00000473  00000+0 -31849-4 0  9999
2 56496  69.9993 104.8865 0003047 264.9990  95.0821 14.98328014156201
ION SCV-022             
1 66682U 25276S   26068.74520243  .00001950  00000+0  17277-3 0  9990
2 66682  97.5376 142.9780 0004539 154.7099 205.4346 14.97347265 15192
